[{"OBJECT_NAME":"ZACUBE-1 (TSHEPISOSAT)","OBJECT_ID":"2013-066B","EPOCH":"2026-03-09T22:19:27.469056","MEAN_MOTION":15.00329659,"ECCENTRICITY":0.00425262,"INCLINATION":97.8171,"RA_OF_ASC_NODE":30.7553,"ARG_OF_PERICENTER":219.1599,"MEAN_ANOMALY":140.6545,"EPHEMERIS_TYPE":0,"CLASSIFICATION_TYPE":"U","NORAD_CAT_ID":39417,"ELEMENT_SET_NO":999,"REV_AT_EPOCH":66584,"BSTAR":0.00042975473,"MEAN_MOTION_DOT":5.431e-5,"MEAN_MOTION_DDOT":0},{"OBJECT_NAME":"STARLINK-3254","OBJECT_ID":"2021-125BA","EPOCH":"2026-03-09T22:17:51.254880","MEAN_MOTION":15.0885855,"ECCENTRICITY":0.00012835,"INCLINATION":53.2162,"RA_OF_ASC_NODE":238.0557,"ARG_OF_PERICENTER":86.9741,"MEAN_ANOMALY":273.1399,"EPHEMERIS_TYPE":0,"CLASSIFICATION_TYPE":"U","NORAD_CAT_ID":50204,"ELEMENT_SET_NO":999,"REV_AT_EPOCH":23682,"BSTAR":0.00020434356,"MEAN_MOTION_DOT":2.967e-5,"MEAN_MOTION_DDOT":0}]
